STARLINK-1762           
1 46342U 20062T   26068.28013643  .00013108  00000+0  45337-3 0  9995
2 46342  53.1598  12.8842 0001207  92.6573 267.4566 15.30238327304332
TEVEL2-8                
1 63239U 25052AF  26068.66815442  .00019130  00000+0  69304-3 0  9993
2 63239  97.4055 324.2923 0008031 124.9191 235.2804 15.28392908 54807
